OBJECT_NAME,OBJECT_ID,EPOCH,MEAN_MOTION,ECCENTRICITY,INCLINATION,RA_OF_ASC_NODE,ARG_OF_PERICENTER,MEAN_ANOMALY,EPHEMERIS_TYPE,CLASSIFICATION_TYPE,NORAD_CAT_ID,ELEMENT_SET_NO,REV_AT_EPOCH,BSTAR,MEAN_MOTION_DOT,MEAN_MOTION_DDOT
CUTE-1 (CO-55),2003-031E,2026-06-11T23:30:12.657888,14.24332546,.0009162,98.6735,171.6035,193.3973,166.6964,0,U,27844,999,19093,.1241768E-3,.243E-5,0
CUBESAT XI-IV (CO-57),2003-031J,2026-06-11T23:09:49.759200,14.23618048,.00087106,98.6768,171.3067,213.1482,146.9152,0,U,27848,999,19063,.11102404E-3,.209E-5,0
CUBESAT XI-V,2005-043F,2026-06-11T23:12:17.734752,14.72617350,.00133393,98.2978,318.4792,218.0052,142.0215,0,U,28895,999,10098,.19211062E-3,.1171E-4,0
CUTE-1.7+APD II (CO-65),2008-021C,2026-06-11T22:41:26.528352,15.09404820,.00102822,97.8271,144.2548,54.9018,305.3173,0,U,32785,999,98440,.30225442E-3,.477E-4,0
CANX-2,2008-021H,2026-06-11T21:43:08.893056,15.05574034,.00116518,97.8618,142.5795,66.0447,294.1998,0,U,32790,999,98401,.25194509E-3,.357E-4,0
SEEDS II (CO-66),2008-021J,2026-06-11T23:28:06.852576,15.32573857,.00018548,97.7516,160.6273,21.0247,339.1070,0,U,32791,999,98649,.52956268E-3,.16592E-3,0
SWISSCUBE,2009-051B,2026-06-11T05:11:30.524928,14.62470076,.0005629,98.4041,70.0006,224.4191,135.6559,0,U,35932,999,88828,.16844E-3,.804E-5,0
BEESAT-1,2009-051C,2026-06-11T16:50:38.229504,14.61711768,.00039792,98.3970,70.1415,238.6332,121.4479,0,U,35933,999,88838,.15245011E-3,.71E-5,0
ITUPSAT1,2009-051E,2026-06-11T04:59:59.440704,14.60431670,.0006132,98.4055,68.8386,256.4621,103.5895,0,U,35935,999,88786,.13683E-3,.614E-5,0
TISAT 1,2010-035E,2026-06-11T19:48:17.496864,15.31505965,.0000614,98.0703,108.8988,171.8876,188.2374,0,U,36799,999,86688,.60400158E-3,.18314E-3,0
AEROCUBE 4.5A,2012-048K,2026-06-11T19:54:27.844416,15.91860725,.00196202,64.6260,46.4498,218.8257,141.1495,0,U,38767,999,37180,.10783531E-2,.362564E-2,.568383E-4
STRAND-1,2013-009E,2026-06-11T11:40:12.874368,14.37160014,.0007504,98.3921,342.8611,244.6927,115.3483,0,U,39090,999,69624,.10129E-3,.258E-5,0
BRITE-AUSTRIA,2013-009F,2026-06-11T10:14:54.820032,14.36539758,.0008992,98.3993,342.0054,255.9460,104.0727,0,U,39091,999,69622,.6267E-4,.141E-5,0
NEE-01 PEGASO,2013-018B,2026-06-11T08:53:19.823712,14.93633706,.0012644,98.1214,306.3290,177.4473,182.6812,0,U,39151,999,70983,.17424E-3,.1781E-4,0
POPACS 2,2013-055E,2026-06-10T06:20:54.981600,14.91044989,.0417121,80.9903,152.1156,216.0318,141.2122,0,U,39269,999,66218,.20956E-3,.12321E-3,0
POPACS 3,2013-055F,2026-06-11T14:55:51.168000,14.56023188,.05526517,81.0021,235.2194,86.9304,279.4954,0,U,39270,999,63774,.23842077E-3,.10143E-3,0
ZACUBE-1 (TSHEPISOSAT),2013-066B,2026-06-11T19:23:46.826304,15.01156095,.00402396,97.8084,125.1158,266.5236,93.1385,0,U,39417,999,67992,.24384002E-3,.3114E-4,0
WNISAT-1,2013-066H,2026-06-11T22:14:42.466560,14.58053737,.01617663,97.7195,312.4567,248.2857,110.1055,0,U,39423,999,66596,.12670072E-3,.646E-5,0
TRITON-1,2013-066M,2026-06-11T19:48:47.776608,14.81685120,.00883732,97.8248,72.7544,251.6952,107.4631,0,U,39427,999,67329,.14882766E-3,.1195E-4,0
GOMX-1,2013-066Q,2026-06-11T22:37:32.640096,14.69442724,.0130194,97.6493,3.7373,94.1785,267.4313,0,U,39430,999,66914,.36756164E-3,.2429E-4,0
CUBEBUG-2 (LO-74),2013-066AA,2026-06-11T18:30:32.870592,14.93717789,.00588714,97.8899,111.7263,46.5267,314.0826,0,U,39440,999,67618,.3329133E-3,.3584E-4,0
NEE-02 KRYSAOR,2013-066AB,2026-06-11T19:47:19.346208,14.86594877,.00677449,97.8890,102.0776,87.3713,273.5255,0,U,39441,999,67540,.20953597E-3,.1879E-4,0
FUNCUBE-1 (AO-73),2013-066AE,2026-06-11T13:18:21.085344,15.09420112,.0035145,97.8262,133.8824,220.5848,139.2760,0,U,39444,999,67881,.34659E-3,.5554E-4,0
UWE-3,2013-066AG,2026-06-11T19:14:11.633856,14.96981046,.00484318,97.8684,118.8390,339.1228,20.8015,0,U,39446,999,67677,.33651693E-3,.39E-4,0
BRITE-CA1 (TORONTO),2014-033L,2026-06-11T22:36:23.676480,14.72669387,.00773303,97.9732,291.9667,294.1123,65.2011,0,U,40020,999,64144,.92883937E-4,.565E-5,0
DUCHIFAT-1,2014-033M,2026-06-11T21:41:01.164480,15.63537353,.00039436,98.0478,221.3257,124.8208,235.3420,0,U,40021,999,65492,.102888E-2,.96111E-3,0
NANOSATC-BR1,2014-033Q,2026-06-11T15:37:55.191936,15.31280018,.00038765,98.0728,194.5490,177.6886,182.4372,0,U,40024,999,65313,.52256012E-3,.15719E-3,0
QB50P1,2014-033R,2026-06-11T22:38:26.164032,15.18181286,.00073372,98.0964,173.7217,235.8215,124.2322,0,U,40025,999,65223,.35123958E-3,.7108E-4,0
QB50P2,2014-033Y,2026-06-11T22:46:15.503520,15.15091872,.00074621,98.0747,159.5029,180.5021,179.6203,0,U,40032,999,65187,.34945622E-3,.6473E-4,0
PERSEUS-M2,2014-033AD,2026-06-11T21:52:07.040640,14.95493339,.00112532,97.9958,113.3444,324.2402,35.8063,0,U,40037,999,64999,.61439219E-4,.619E-5,0
